{"type": "FeatureCollection", "features": [ {"type": "Feature", "properties": {"norad_id": 37834, "name": "INTELSAT 18 (IS-18)", "group": "intelsat", "lat": 0.022256515598023732, "lon": 57.87235748797058, "alt_km": 35791.01838904129, "timestamp": "2025-12-26T09:30:53.296185+00:00", "meta": {"OBJECT_NAME": "INTELSAT 18 (IS-18)", "OBJECT_ID": "2011-056A", "EPOCH": "2025-12-26T03:40:38.798112", "MEAN_MOTION": 1.00271849, "ECCENTRICITY": 0.0001926, "INCLINATION": 0.0171, "RA_OF_ASC_NODE": 297.462, "ARG_OF_PERICENTER": 352.9016, "MEAN_ANOMALY": 39.6981, "EPHEMERIS_TYPE": 0, "CLASSIFICATION_TYPE": "U", "NORAD_CAT_ID": 37834, "ELEMENT_SET_NO": 999, "REV_AT_EPOCH": 5207, "BSTAR": 0, "MEAN_MOTION_DOT": 7.5e-07, "MEAN_MOTION_DDOT": 0}, "tle": {"line1": "1 37834U 11056A   25360.15322683  .00000075  00000+0  00000+0 0  9994", "line2": "2 37834   0.0171 297.4620 0001926 352.9016  39.6981  1.00271849 52072"}}, "geometry": {"type": "Point", "coordinates": [57.87235748797058, 0.022256515598023732]}}, {"type": "Feature", "properties": {"norad_id": 38098, "name": "INTELSAT 22 (IS-22)", "group": "intelsat", "lat": -0.047157766029561586, "lon": -50.05426154467891, "alt_km": 35778.30317533347, "timestamp": "2025-12-26T09:30:53.296198+00:00", "meta": {"OBJECT_NAME": "INTELSAT 22 (IS-22)", "OBJECT_ID": "2012-011A", "EPOCH": "2025-12-26T02:10:38.891424", "MEAN_MOTION": 1.00270604, "ECCENTRICITY": 0.0001954, "INCLINATION": 0.032, "RA_OF_ASC_NODE": 51.6122, "ARG_OF_PERICENTER": 247.6605, "MEAN_ANOMALY": 260.3158, "EPHEMERIS_TYPE": 0, "CLASSIFICATION_TYPE": "U", "NORAD_CAT_ID": 38098, "ELEMENT_SET_NO": 999, "REV_AT_EPOCH": 545, "BSTAR": 0, "MEAN_MOTION_DOT": 0, "MEAN_MOTION_DDOT": 0}, "tle": {"line1": "1 38098U 12011A   25360.09072791  .00000000  00000+0  00000+0 0  9992", "line2": "2 38098   0.0320  51.6122 0001954 247.6605 260.3158  1.00270604  5450"}}, "geometry": {"type": "Point", "coordinates": [-50.05426154467891, -0.047157766029561586]}}, {"type": "Feature", "properties": {"norad_id": 38356, "name": "INTELSAT 19 (IS-19)", "group": "intelsat", "lat": 0.020312693188012574, "lon": 43.891541712064054, "alt_km": 35794.49845294285, "timestamp": "2025-12-26T09:30:53.296211+00:00", "meta": {"OBJECT_NAME": "INTELSAT 19 (IS-19)", "OBJECT_ID": "2012-030A", "EPOCH": "2025-12-25T22:24:59.206176", "MEAN_MOTION": 1.00271988, "ECCENTRICITY": 0.0002992, "INCLINATION": 0.0098, "RA_OF_ASC_NODE": 337.2773, "ARG_OF_PERICENTER": 294.5266, "MEAN_ANOMALY": 325.1376, "EPHEMERIS_TYPE": 0, "CLASSIFICATION_TYPE": "U", "NORAD_CAT_ID": 38356, "ELEMENT_SET_NO": 999, "REV_AT_EPOCH": 4871, "BSTAR": 0, "MEAN_MOTION_DOT": -3.5e-07, "MEAN_MOTION_DDOT": 0}, "tle": {"line1": "1 38356U 12030A   25359.93401859 -.00000035  00000+0  00000+0 0  9991", "line2": "2 38356   0.0098 337.2773 0002992 294.5266 325.1376  1.00271988 48715"}}, "geometry": {"type": "Point", "coordinates": [43.891541712064054, 0.020312693188012574]}}, {"type": "Feature", "properties": {"norad_id": 38740, "name": "INTELSAT 20 (IS-20)", "group": "intelsat", "lat": -0.025454753122890025, "lon": -53.608903523738526, "alt_km": 35788.01357755776, "timestamp": "2025-12-26T09:30:53.296223+00:00", "meta": {"OBJECT_NAME": "INTELSAT 20 (IS-20)", "OBJECT_ID": "2012-043A", "EPOCH": "2025-12-26T02:10:38.891424", "MEAN_MOTION": 1.00277669, "ECCENTRICITY": 0.0001957, "INCLINATION": 0.0128, "RA_OF_ASC_NODE": 61.9497, "ARG_OF_PERICENTER": 128.5096, "MEAN_ANOMALY": 5.5509, "EPHEMERIS_TYPE": 0, "CLASSIFICATION_TYPE": "U", "NORAD_CAT_ID": 38740, "ELEMENT_SET_NO": 999, "REV_AT_EPOCH": 4901, "BSTAR": 0, "MEAN_MOTION_DOT": -4e-08, "MEAN_MOTION_DDOT": 0}, "tle": {"line1": "1 38740U 12043A   25360.09072791 -.00000004  00000+0  00000+0 0  9996", "line2": "2 38740   0.0128  61.9497 0001957 128.5096   5.5509  1.00277669 49010"}}, "geometry": {"type": "Point", "coordinates": [-53.608903523738526, -0.025454753122890025]}}, {"type": "Feature", "properties": {"norad_id": 38749, "name": "INTELSAT 21 (IS-21)", "group": "intelsat", "lat": -0.007736277901277343, "lon": 179.8532603262138, "alt_km": 35785.667460205805, "timestamp": "2025-12-26T09:30:53.296235+00:00", "meta": {"OBJECT_NAME": "INTELSAT 21 (IS-21)", "OBJECT_ID": "2012-045A", "EPOCH": "2025-12-26T02:29:55.682016", "MEAN_MOTION": 1.00272005, "ECCENTRICITY": 0.000174, "INCLINATION": 0.0178, "RA_OF_ASC_NODE": 332.2031, "ARG_OF_PERICENTER": 294.553, "MEAN_ANOMALY": 167.5959, "EPHEMERIS_TYPE": 0, "CLASSIFICATION_TYPE": "U", "NORAD_CAT_ID": 38749, "ELEMENT_SET_NO": 999, "REV_AT_EPOCH": 4878, "BSTAR": 0, "MEAN_MOTION_DOT": -2.63e-06, "MEAN_MOTION_DDOT": 0}, "tle": {"line1": "1 38749U 12045A   25360.10411669 -.00000263  00000+0  00000+0 0  9997", "line2": "2 38749   0.0178 332.2031 0001740 294.5530 167.5959  1.00272005 48789"}}, "geometry": {"type": "Point", "coordinates": [179.8532603262138, -0.007736277901277343]}}, {"type": "Feature", "properties": {"norad_id": 38867, "name": "INTELSAT 23 (IS-23)", "group": "intelsat", "lat": 0.017577579575796726, "lon": -175.13878677742494, "alt_km": 35786.975866041656, "timestamp": "2025-12-26T09:30:53.296248+00:00", "meta": {"OBJECT_NAME": "INTELSAT 23 (IS-23)", "OBJECT_ID": "2012-057A", "EPOCH": "2025-12-26T02:05:46.285728", "MEAN_MOTION": 1.00273309, "ECCENTRICITY": 6.02e-05, "INCLINATION": 0.0169, "RA_OF_ASC_NODE": 76.6444, "ARG_OF_PERICENTER": 228.7925, "MEAN_ANOMALY": 127.8518, "EPHEMERIS_TYPE": 0, "CLASSIFICATION_TYPE": "U", "NORAD_CAT_ID": 38867, "ELEMENT_SET_NO": 999, "REV_AT_EPOCH": 4821, "BSTAR": 0, "MEAN_MOTION_DOT": -2.63e-06, "MEAN_MOTION_DDOT": 0}, "tle": {"line1": "1 38867U 12057A   25360.08734127 -.00000263  00000+0  00000+0 0  9995", "line2": "2 38867   0.0169  76.6444 0000602 228.7925 127.8518  1.00273309 48216"}}, "geometry": {"type": "Point", "coordinates": [-175.13878677742494, 0.017577579575796726]}}, {"type": "Feature", "properties": {"norad_id": 39360, "name": "FM-6", "group": "intelsat", "lat": 0.027436564035326592, "lon": 121.64289573710484, "alt_km": 35780.31252128484, "timestamp": "2025-12-26T09:30:53.296260+00:00", "meta": {"OBJECT_NAME": "FM-6", "OBJECT_ID": "2013-058A", "EPOCH": "2025-12-25T23:15:38.712384", "MEAN_MOTION": 1.00267622, "ECCENTRICITY": 0.0003134, "INCLINATION": 0.0194, "RA_OF_ASC_NODE": 74.6696, "ARG_OF_PERICENTER": 105.3027, "MEAN_ANOMALY": 147.4825, "EPHEMERIS_TYPE": 0, "CLASSIFICATION_TYPE": "U", "NORAD_CAT_ID": 39360, "ELEMENT_SET_NO": 999, "REV_AT_EPOCH": 4433, "BSTAR": 0, "MEAN_MOTION_DOT": 5e-08, "MEAN_MOTION_DDOT": 0}, "tle": {"line1": "1 39360U 13058A   25359.96919806  .00000005  00000+0  00000+0 0  9993", "line2": "2 39360   0.0194  74.6696 0003134 105.3027 147.4825  1.00267622 44335"}}, "geometry": {"type": "Point", "coordinates": [121.64289573710484, 0.027436564035326592]}}, {"type": "Feature", "properties": {"norad_id": 40271, "name": "INTELSAT 30 (IS-30)", "group": "intelsat", "lat": 0.031056585544754985, "lon": 142.81112867678263, "alt_km": 35783.02442554788, "timestamp": "2025-12-26T09:30:53.296272+00:00", "meta": {"OBJECT_NAME": "INTELSAT 30 (IS-30)", "OBJECT_ID": "2014-062A", "EPOCH": "2025-12-25T03:32:01.529088", "MEAN_MOTION": 1.00271148, "ECCENTRICITY": 0.0001447, "INCLINATION": 0.0153, "RA_OF_ASC_NODE": 34.2697, "ARG_OF_PERICENTER": 50.7902, "MEAN_ANOMALY": 326.8001, "EPHEMERIS_TYPE": 0, "CLASSIFICATION_TYPE": "U", "NORAD_CAT_ID": 40271, "ELEMENT_SET_NO": 999, "REV_AT_EPOCH": 504, "BSTAR": 0, "MEAN_MOTION_DOT": -1.3e-06, "MEAN_MOTION_DDOT": 0}, "tle": {"line1": "1 40271U 14062A   25359.14723992 -.00000130  00000+0  00000+0 0  9991", "line2": "2 40271   0.0153  34.2697 0001447  50.7902 326.8001  1.00271148  5048"}}, "geometry": {"type": "Point", "coordinates": [142.81112867678263, 0.031056585544754985]}}, {"type": "Feature", "properties": {"norad_id": 40333, "name": "DIRECTV 14", "group": "intelsat", "lat": 0.018165924517134856, "lon": 138.696743117229, "alt_km": 35784.060357635564, "timestamp": "2025-12-26T09:30:53.296285+00:00", "meta": {"OBJECT_NAME": "DIRECTV 14", "OBJECT_ID": "2014-078B", "EPOCH": "2025-12-24T12:37:43.773312", "MEAN_MOTION": 1.00279829, "ECCENTRICITY": 3.885e-05, "INCLINATION": 0.0184, "RA_OF_ASC_NODE": 340.4706, "ARG_OF_PERICENTER": 254.7884, "MEAN_ANOMALY": 308.2619, "EPHEMERIS_TYPE": 0, "CLASSIFICATION_TYPE": "U", "NORAD_CAT_ID": 40333, "ELEMENT_SET_NO": 999, "REV_AT_EPOCH": 4029, "BSTAR": 0, "MEAN_MOTION_DOT": -1.06e-06, "MEAN_MOTION_DDOT": 0}, "tle": {"line1": "1 40333U 14078B   25358.52620108 -.00000106  00000+0  00000+0 0  9996", "line2": "2 40333   0.0184 340.4706 0000388 254.7884 308.2619  1.00279829 40291"}}, "geometry": {"type": "Point", "coordinates": [138.696743117229, 0.018165924517134856]}}, {"type": "Feature", "properties": {"norad_id": 40663, "name": "DIRECTV 15", "group": "intelsat", "lat": 0.03420250196736041, "lon": 134.9474175701609, "alt_km": 35786.081411337174, "timestamp": "2025-12-26T09:30:53.296298+00:00", "meta": {"OBJECT_NAME": "DIRECTV 15", "OBJECT_ID": "2015-026A", "EPOCH": "2025-12-25T16:00:02.811744", "MEAN_MOTION": 1.00267803, "ECCENTRICITY": 3.367e-05, "INCLINATION": 0.018, "RA_OF_ASC_NODE": 26.1792, "ARG_OF_PERICENTER": 146.2748, "MEAN_ANOMALY": 59.0835, "EPHEMERIS_TYPE": 0, "CLASSIFICATION_TYPE": "U", "NORAD_CAT_ID": 40663, "ELEMENT_SET_NO": 999, "REV_AT_EPOCH": 3872, "BSTAR": 0, "MEAN_MOTION_DOT": -8e-07, "MEAN_MOTION_DDOT": 0}, "tle": {"line1": "1 40663U 15026A   25359.66669921 -.00000080  00000+0  00000+0 0  9999", "line2": "2 40663   0.0180  26.1792 0000336 146.2748  59.0835  1.00267803 38728"}}, "geometry": {"type": "Point", "coordinates": [134.9474175701609, 0.03420250196736041]}}]}